
# Worst residual: 48.93 km
# MJD 60836.000000 (2025 Jun 10  0:00)
ZTs0377 = A11o3Mx = A11nDjF
1 79877U 25000ZZD 25161.49919926  .00000000  00000-0  00000-0 0 27113
2 79877 019.2067 330.2163 6793267 082.0397 351.4191 00.99002689    09

# Worst residual: 49.52 km
# MJD 60837.000000 (2025 Jun 11  0:00)
ZTs0377 = A11o3Mx = A11nDjF
1 79877U 25000ZZD 25162.49919926  .00000000  00000-0  00000-0 0 27114
2 79877 019.2095 330.2467 6779408 082.2974 347.1043 00.98972145    01

# Worst residual: 49.65 km
# MJD 60838.000000 (2025 Jun 12  0:00)
ZTs0377 = A11o3Mx = A11nDjF
1 79877U 25000ZZD 25163.49919926  .00000000  00000-0  00000-0 0 27115
2 79877 019.2121 330.2790 6765151 082.5507 342.7222 00.98942135    01

# Worst residual: 53.04 km
# MJD 60839.000000 (2025 Jun 13  0:00)
ZTs0377 = A11o3Mx = A11nDjF
1 79877U 25000ZZD 25164.49919926  .00000000  00000-0  00000-0 0 27116
2 79877 019.2145 330.3121 6750665 082.8006 338.2757 00.98913055    09

# Worst residual: 56.55 km
# MJD 60840.000000 (2025 Jun 14  0:00)
ZTs0377 = A11o3Mx = A11nDjF
1 79877U 25000ZZD 25165.49919926  .00000000  00000-0  00000-0 0 27117
2 79877 019.2168 330.3455 6736051 083.0481 333.7661 00.98884936    06

# Worst residual: 58.82 km
# MJD 60841.000000 (2025 Jun 15  0:00)
ZTs0377 = A11o3Mx = A11nDjF
1 79877U 25000ZZD 25166.49919926  .00000000  00000-0  00000-0 0 27118
2 79877 019.2202 330.3854 6721660 083.2918 329.1919 00.98856180    00

# Worst residual: 64.35 km
# MJD 60842.000000 (2025 Jun 16  0:00)
ZTs0377 = A11o3Mx = A11nDjF
1 79877U 25000ZZD 25167.49919926  .00000000  00000-0  00000-0 0 27119
2 79877 019.2213 330.4159 6706238 083.5376 324.5616 00.98830245    03

# Worst residual: 67.84 km
# MJD 60843.000000 (2025 Jun 17  0:00)
ZTs0377 = A11o3Mx = A11nDjF
1 79877U 25000ZZD 25168.49919926  .00000000  00000-0  00000-0 0 27110
2 79877 019.2237 330.4547 6690738 083.7798 319.8696 00.98803314    09

# Worst residual: 70.01 km
# MJD 60844.000000 (2025 Jun 18  0:00)
ZTs0377 = A11o3Mx = A11nDjF
1 79877U 25000ZZD 25169.49919926  .00000000  00000-0  00000-0 0 27111
2 79877 019.2262 330.4966 6674723 084.0202 315.1216 00.98777105    07

# Worst residual: 69.96 km
# MJD 60845.000000 (2025 Jun 19  0:00)
ZTs0377 = A11o3Mx = A11nDjF
1 79877U 25000ZZD 25170.49919926  .00000000  00000-0  00000-0 0 27113
2 79877 019.2311 330.5437 6657972 084.2551 310.3229 00.98755333    02

# Worst residual: 69.50 km
# MJD 60846.000000 (2025 Jun 20  0:00)
ZTs0377 = A11o3Mx = A11nDjF
1 79877U 25000ZZD 25171.49919926  .00000000  00000-0  00000-0 0 27114
2 79877 019.2310 330.5872 6641272 084.4954 305.4805 00.98729157    09

# Worst residual: 67.44 km
# MJD 60847.000000 (2025 Jun 21  0:00)
ZTs0377 = A11o3Mx = A11nDjF
1 79877U 25000ZZD 25172.49919926  .00000000  00000-0  00000-0 0 27115
2 79877 019.2332 330.6345 6623968 084.7305 300.5989 00.98708180    06

# Worst residual: 64.97 km
# MJD 60848.000000 (2025 Jun 22  0:00)
ZTs0377 = A11o3Mx = A11nDjF
1 79877U 25000ZZD 25173.49919926  .00000000  00000-0  00000-0 0 27116
2 79877 019.2352 330.6825 6606323 084.9643 295.6838 00.98689375    05

# Worst residual: 62.62 km
# MJD 60849.000000 (2025 Jun 23  0:00)
ZTs0377 = A11o3Mx = A11nDjF
1 79877U 25000ZZD 25174.49919926  .00000000  00000-0  00000-0 0 27117
2 79877 019.2371 330.7318 6588264 085.1964 290.7422 00.98672785    08

# Worst residual: 59.78 km
# MJD 60850.000000 (2025 Jun 24  0:00)
ZTs0377 = A11o3Mx = A11nDjF
1 79877U 25000ZZD 25175.49919926  .00000000  00000-0  00000-0 0 27118
2 79877 019.2377 330.7839 6569402 085.4277 285.7811 00.98658338    09

# Worst residual: 57.22 km
# MJD 60851.000000 (2025 Jun 25  0:00)
ZTs0377 = A11o3Mx = A11nDjF
1 79877U 25000ZZD 25176.49919926  .00000000  00000-0  00000-0 0 27119
2 79877 019.2419 330.8487 6550654 085.6453 280.8070 00.98646339    04

# Worst residual: 53.41 km
# MJD 60852.000000 (2025 Jun 26  0:00)
ZTs0377 = A11o3Mx = A11nDjF
1 79877U 25000ZZD 25177.49919926  .00000000  00000-0  00000-0 0 27110
2 79877 019.2410 330.8988 6530767 085.8771 275.8274 00.98636716    07

# Worst residual: 47.96 km
# MJD 60853.000000 (2025 Jun 27  0:00)
ZTs0377 = A11o3Mx = A11nDjF
1 79877U 25000ZZD 25178.49919926  .00000000  00000-0  00000-0 0 27111
2 79877 019.2457 330.9626 6510056 086.0927 270.8473 00.98628376    02

# Worst residual: 42.03 km
# MJD 60854.000000 (2025 Jun 28  0:00)
ZTs0377 = A11o3Mx = A11nDjF
1 79877U 25000ZZD 25179.49919926  .00000000  00000-0  00000-0 0 27112
2 79877 019.2446 331.0100 6489441 086.3235 265.8721 00.98622245    06

# Worst residual: 36.83 km
# MJD 60855.000000 (2025 Jun 29  0:00)
ZTs0377 = A11o3Mx = A11nDjF
1 79877U 25000ZZD 25180.49919926  .00000000  00000-0  00000-0 0 27114
2 79877 019.2456 331.0710 6468434 086.5403 260.9014 00.98618395    04

# Worst residual: 31.60 km
# MJD 60856.000000 (2025 Jun 30  0:00)
ZTs0377 = A11o3Mx = A11nDjF
1 79877U 25000ZZD 25181.49919926  .00000000  00000-0  00000-0 0 27115
2 79877 019.2464 331.1328 6447254 086.7537 255.9373 00.98615862    04

# Worst residual: 25.16 km
# MJD 60857.000000 (2025 Jul  1  0:00)
ZTs0377 = A11o3Mx = A11nDjF
1 79877U 25000ZZD 25182.49919926  .00000000  00000-0  00000-0 0 27116
2 79877 019.2478 331.1916 6426117 086.9677 250.9799 00.98612852    07

# Worst residual: 26.43 km
# MJD 60858.000000 (2025 Jul  2  0:00)
ZTs0377 = A11o3Mx = A11nDjF
1 79877U 25000ZZD 25183.49919926  .00000000  00000-0  00000-0 0 27117
2 79877 019.2476 331.2591 6404314 087.1726 246.0245 00.98612016    02

# Worst residual: 27.66 km
# MJD 60859.000000 (2025 Jul  3  0:00)
ZTs0377 = A11o3Mx = A11nDjF
1 79877U 25000ZZD 25184.49919926  .00000000  00000-0  00000-0 0 27118
2 79877 019.2482 331.3233 6382477 087.3805 241.0707 00.98609690    00

# Worst residual: 28.89 km
# MJD 60860.000000 (2025 Jul  4  0:00)
ZTs0377 = A11o3Mx = A11nDjF
1 79877U 25000ZZD 25185.49919926  .00000000  00000-0  00000-0 0 27119
2 79877 019.2491 331.4008 6360389 087.5752 236.1189 00.98607957    05

# Worst residual: 28.62 km
# MJD 60861.000000 (2025 Jul  5  0:00)
ZTs0377 = A11o3Mx = A11nDjF
1 79877U 25000ZZD 25186.49919926  .00000000  00000-0  00000-0 0 27110
2 79877 019.2496 331.4575 6338102 087.7982 231.1576 00.98605126    05

# Worst residual: 33.98 km
# MJD 60862.000000 (2025 Jul  6  0:00)
ZTs0377 = A11o3Mx = A11nDjF
1 79877U 25000ZZD 25187.49919926  .00000000  00000-0  00000-0 0 27111
2 79877 019.2498 331.5241 6314959 088.0050 226.2023 00.98603595    02

# Worst residual: 34.96 km
# MJD 60863.000000 (2025 Jul  7  0:00)
ZTs0377 = A11o3Mx = A11nDjF
1 79877U 25000ZZD 25188.49919926  .00000000  00000-0  00000-0 0 27112
2 79877 019.2515 331.6030 6291593 088.2046 221.2464 00.98602487    07

# Worst residual: 37.17 km
# MJD 60864.000000 (2025 Jul  8  0:00)
ZTs0377 = A11o3Mx = A11nDjF
1 79877U 25000ZZD 25189.49919926  .00000000  00000-0  00000-0 0 27113
2 79877 019.2500 331.6949 6268086 088.3883 216.2949 00.98609460    01
